{
  "type": "FeatureCollection",
  "name": "batas_rt",
  "features": [
    {
      "type": "Feature",
      "properties": {
        "nama": "RT 02",
        "keterangan": "Wilayah RT 02 Tegalsari (Batas Merah, Area Biru)",
        "stroke_color": "#EF4444",
        "fill_color": "#1E3A8A",
        "fill_opacity": 0.15
      },
      "geometry": {
        "type": "Polygon",
        "coordinates": [
          [
            [107.93065495983552, -6.848341634092428],
            [107.92987498529888, -6.848301009322022],
            [107.92923821920175, -6.848308626466739],
            [107.92832782261412, -6.8482832359781876],
            [107.92788029624064, -6.84825022834844],
            [107.92772430133331, -6.8492429952904414],
            [107.92774731697538, -6.849402954988091],
            [107.928057, -6.849430],
            [107.928383, -6.849413],
            [107.929108, -6.849685],
            [107.92915846347273, -6.849527710823864],
            [107.92922149538042, -6.849493090971573],
            [107.92976857995622, -6.849633585771006],
            [107.92985311460862, -6.8497305730362825],
            [107.9302795449663, -6.8498312905601075],
            [107.93065240254197, -6.848369563620098],
            [107.93065495983552, -6.848341634092428]
          ]
        ]
      }
    }
  ]
}
